*******************************************************************************
 Revised: April 12, 2021       Solar System Barycenter                        0

 Dynamical point 
 ---------------
 The center of mass for the solar system. See object 10 for Sun ephemeris.
*******************************************************************************
 
 
*******************************************************************************
Ephemeris / WWW_USER Fri Aug 12 01:16:26 2022 Pasadena, USA      / Horizons
*******************************************************************************
Target body name: Solar System Barycenter (0)     {source: DE441}
Center body name: Earth (399)                     {source: DE441}
Center-site name: BODY CENTER
*******************************************************************************
Start time      : A.D. 2018-Jan-01 00:00:00.0000 TDB
Stop  time      : A.D. 2019-Jan-01 00:00:00.0000 TDB
Step-size       : 7200 minutes
*******************************************************************************
Center geodetic : 0.00000000,0.00000000,0.0000000 {E-lon(deg),Lat(deg),Alt(km)}
Center cylindric: 0.00000000,0.00000000,0.0000000 {E-lon(deg),Dxy(km),Dz(km)}
Center radii    : 6378.1 x 6378.1 x 6356.8 km     {Equator, meridian, pole}    
Output units    : AU-D
Output type     : GEOMETRIC cartesian states
Output format   : 1 (position only)
EOP file        : eop.220810.p221103
EOP coverage    : DATA-BASED 1962-JAN-20 TO 2022-AUG-10. PREDICTS-> 2022-NOV-02
Reference frame : ICRF
*******************************************************************************
            JDTDB,            Calendar Date (TDB),                      X,                      Y,                      Z,
**************************************************************************************************************************
$$SOE
2458119.500000000, A.D. 2018-Jan-01 00:00:00.0000,  1.734180580925799E-01, -8.934091778956460E-01, -3.871679523680711E-01,
2458124.500000000, A.D. 2018-Jan-06 00:00:00.0000,  2.586683954752250E-01, -8.756593571682169E-01, -3.794710489732146E-01,
2458129.500000000, A.D. 2018-Jan-11 00:00:00.0000,  3.419295380911573E-01, -8.511584982921978E-01, -3.688489915233931E-01,
2458134.500000000, A.D. 2018-Jan-16 00:00:00.0000,  4.225455984645701E-01, -8.200636235354516E-01, -3.553719229694610E-01,
2458139.500000000, A.D. 2018-Jan-21 00:00:00.0000,  4.998591103856148E-01, -7.826138902901300E-01, -3.391417527699144E-01,
2458144.500000000, A.D. 2018-Jan-26 00:00:00.0000,  5.732481864722472E-01, -7.391302412289970E-01, -3.202940242743504E-01,
2458149.500000000, A.D. 2018-Jan-31 00:00:00.0000,  6.421603791258530E-01, -6.899950039152867E-01, -2.989924084402255E-01,
2458154.500000000, A.D. 2018-Feb-05 00:00:00.0000,  7.061169653138308E-01, -6.356010101324694E-01, -2.754102212556025E-01,
2458159.500000000, A.D. 2018-Feb-10 00:00:00.0000,  7.646507594310409E-01, -5.763398762852237E-01, -2.497212986692244E-01,
2458164.500000000, A.D. 2018-Feb-15 00:00:00.0000,  8.172976039563450E-01, -5.126570564382800E-01, -2.221185273053598E-01,
2458169.500000000, A.D. 2018-Feb-20 00:00:00.0000,  8.636371022815349E-01, -4.450639052695935E-01, -1.928204552813838E-01,
2458174.500000000, A.D. 2018-Feb-25 00:00:00.0000,  9.033252645690405E-01, -3.741242394526221E-01, -1.620682391898139E-01,
2458179.500000000, A.D. 2018-Mar-02 00:00:00.0000,  9.361151212483371E-01, -3.004139742959627E-01, -1.301120997035876E-01,
2458184.500000000, A.D. 2018-Mar-07 00:00:00.0000,  9.618194493759272E-01, -2.244781432565620E-01, -9.719278628497699E-02,
2458189.500000000, A.D. 2018-Mar-12 00:00:00.0000,  9.802591023741950E-01, -1.468627801658602E-01, -6.354895053066530E-02,
2458194.500000000, A.D. 2018-Mar-17 00:00:00.0000,  9.912888502919660E-01, -6.815439215787232E-02, -2.943274288965036E-02,
2458199.500000000, A.D. 2018-Mar-22 00:00:00.0000,  9.948320101692704E-01,  1.102568532036611E-02,  4.890103662818609E-03,
2458204.500000000, A.D. 2018-Mar-27 00:00:00.0000,  9.909081423925080E-01,  9.004814122906435E-02,  3.914829890405189E-02,
2458209.500000000, A.D. 2018-Apr-01 00:00:00.0000,  9.796216374280707E-01,  1.683270675121505E-01,  7.308464313588212E-02,
2458214.500000000, A.D. 2018-Apr-06 00:00:00.0000,  9.611002271473502E-01,  2.453242184608015E-01,  1.064621398382519E-01,
2458219.500000000, A.D. 2018-Apr-11 00:00:00.0000,  9.354824498390666E-01,  3.204989391824226E-01,  1.390469342401978E-01,
2458224.500000000, A.D. 2018-Apr-16 00:00:00.0000,  9.029540379196003E-01,  3.932941881409401E-01,  1.706007805160503E-01,
2458229.500000000, A.D. 2018-Apr-21 00:00:00.0000,  8.637760694611017E-01,  4.631508673946057E-01,  2.008842657178861E-01,
2458234.500000000, A.D. 2018-Apr-26 00:00:00.0000,  8.182987043563291E-01,  5.295515678743967E-01,  2.296718014706698E-01,
2458239.500000000, A.D. 2018-May-01 00:00:00.0000,  7.669100278095302E-01,  5.920554411468372E-01,  2.567680477803482E-01,
2458244.500000000, A.D. 2018-May-06 00:00:00.0000,  7.099907431250312E-01,  6.502603344646748E-01,  2.819973270792577E-01,
2458249.500000000, A.D. 2018-May-11 00:00:00.0000,  6.479360269185624E-01,  7.037660971005846E-01,  3.051885644142302E-01,
2458254.500000000, A.D. 2018-May-16 00:00:00.0000,  5.811869253657357E-01,  7.521779140960531E-01,  3.261740814050046E-01,
2458259.500000000, A.D. 2018-May-21 00:00:00.0000,  5.102548720312065E-01,  7.951307058588617E-01,  3.447965600276052E-01,
2458264.500000000, A.D. 2018-May-26 00:00:00.0000,  4.357033651519656E-01,  8.323413780050237E-01,  3.609294803715393E-01,
2458269.500000000, A.D. 2018-May-31 00:00:00.0000,  3.580800696688370E-01,  8.635997548035922E-01,  3.744786810923137E-01,
2458274.500000000, A.D. 2018-Jun-05 00:00:00.0000,  2.779131318855028E-01,  8.887177447800627E-01,  3.853637265244283E-01,
2458279.500000000, A.D. 2018-Jun-10 00:00:00.0000,  1.957442364251262E-01,  9.075167371016383E-01,  3.935105509225175E-01,
2458284.500000000, A.D. 2018-Jun-15 00:00:00.0000,  1.121538915912267E-01,  9.198398914743235E-01,  3.988537817896852E-01,
2458289.500000000, A.D. 2018-Jun-20 00:00:00.0000,  2.777430476378991E-02,  9.255918739818200E-01,  4.013501446393974E-01,
2458294.500000000, A.D. 2018-Jun-25 00:00:00.0000, -5.676811284143769E-02,  9.247720493187153E-01,  4.009949413359438E-01,
2458299.500000000, A.D. 2018-Jun-30 00:00:00.0000, -1.408958938881254E-01,  9.174241645734587E-01,  3.978065163435319E-01,
2458304.500000000, A.D. 2018-Jul-05 00:00:00.0000, -2.240521433558272E-01,  9.036032674920311E-01,  3.918115255880940E-01,
2458309.500000000, A.D. 2018-Jul-10 00:00:00.0000, -3.056716326885479E-01,  8.833798453496640E-01,  3.830438863838976E-01,
2458314.500000000, A.D. 2018-Jul-15 00:00:00.0000, -3.851600608410733E-01,  8.568617954957234E-01,  3.715509221748116E-01,
2458319.500000000, A.D. 2018-Jul-20 00:00:00.0000, -4.619107471017350E-01,  8.242421801883762E-01,  3.574120455051920E-01,
2458324.500000000, A.D. 2018-Jul-25 00:00:00.0000, -5.353771651458600E-01,  7.857864336733669E-01,  3.407394808330031E-01,
2458329.500000000, A.D. 2018-Jul-30 00:00:00.0000, -6.050695761715886E-01,  7.417738893006158E-01,  3.216559939503565E-01,
2458334.500000000, A.D. 2018-Aug-04 00:00:00.0000, -6.705193109385394E-01,  6.924895989479568E-01,  3.002886508883595E-01,
2458339.500000000, A.D. 2018-Aug-09 00:00:00.0000, -7.312557517027988E-01,  6.382377067914413E-01,  2.767715590718867E-01,
2458344.500000000, A.D. 2018-Aug-14 00:00:00.0000, -7.867980990522296E-01,  5.793763346786279E-01,  2.512577785825449E-01,
2458349.500000000, A.D. 2018-Aug-19 00:00:00.0000, -8.367084419078112E-01,  5.163469190968194E-01,  2.239341130310243E-01,
2458354.500000000, A.D. 2018-Aug-24 00:00:00.0000, -8.806371719042139E-01,  4.496192241073985E-01,  1.950039874281067E-01,
2458359.500000000, A.D. 2018-Aug-29 00:00:00.0000, -9.182869441769334E-01,  3.796553008257484E-01,  1.646707845613816E-01,
2458364.500000000, A.D. 2018-Sep-03 00:00:00.0000, -9.493832155184772E-01,  3.069164997464057E-01,  1.331376765790059E-01,
2458369.500000000, A.D. 2018-Sep-08 00:00:00.0000, -9.736568121188512E-01,  2.318866597843836E-01,  1.006144765232623E-01,
2458374.500000000, A.D. 2018-Sep-13 00:00:00.0000, -9.908635404313964E-01,  1.551110256116823E-01,  6.733337215472690E-02,
2458379.500000000, A.D. 2018-Sep-18 00:00:00.0000, -1.000849750232806E+00,  7.718179218404381E-02,  3.354844064509376E-02,
2458384.500000000, A.D. 2018-Sep-23 00:00:00.0000, -1.003548649660286E+00, -1.324939506499604E-03, -4.885371746980956E-04,
2458389.500000000, A.D. 2018-Sep-28 00:00:00.0000, -9.989382901108997E-01, -7.985774652293841E-02, -3.453503895372741E-02,
2458394.500000000, A.D. 2018-Oct-03 00:00:00.0000, -9.870176189058205E-01, -1.578751544799296E-01, -6.835458283583673E-02,
2458399.500000000, A.D. 2018-Oct-08 00:00:00.0000, -9.678032028348159E-01, -2.348108254006794E-01, -1.017042108151557E-01,
2458404.500000000, A.D. 2018-Oct-13 00:00:00.0000, -9.413793949578360E-01, -3.100558376243331E-01, -1.343240273958640E-01,
2458409.500000000, A.D. 2018-Oct-18 00:00:00.0000, -9.079354486803749E-01, -3.830117819759049E-01, -1.659544500993045E-01,
2458414.500000000, A.D. 2018-Oct-23 00:00:00.0000, -8.677266639285214E-01, -4.531301041449340E-01, -1.963544171870650E-01,
2458419.500000000, A.D. 2018-Oct-28 00:00:00.0000, -8.210397683753327E-01, -5.199046171468873E-01, -2.253016197148020E-01,
2458424.500000000, A.D. 2018-Nov-02 00:00:00.0000, -7.681728997307466E-01, -5.828467574764332E-01, -2.525849435908298E-01,
2458429.500000000, A.D. 2018-Nov-07 00:00:00.0000, -7.094605889227615E-01, -6.414496089335792E-01, -2.779888242098173E-01,
2458434.500000000, A.D. 2018-Nov-12 00:00:00.0000, -6.453281647824675E-01, -6.952118947039173E-01, -3.012979012611365E-01,
2458439.500000000, A.D. 2018-Nov-17 00:00:00.0000, -5.762805658346914E-01, -7.436950312681168E-01, -3.223196424433167E-01,
2458444.500000000, A.D. 2018-Nov-22 00:00:00.0000, -5.028558708407721E-01, -7.865322923472599E-01, -3.408916551887973E-01,
